[Satellite]
VERSION=1.1
NAME=LUCH 5V
NICKNAME=LUCH 5V
TLE1=1 39727U 14023A   17186.31737256 -.00000271  00000-0  00000-0 0  9996
TLE2=2 39727   2.6712 298.9812 0001742 171.6909  21.8218  1.00273236529747
